contact_id,type,company_name,address1,address2,city,state_prov,country_code,postal_code
38,work,Mile High Lounge,7002 S Village Green Dr,,Snoqualamish,WA,US,98215
57,work,Steward Painting & Restoration,3727 W Carter's Corner Rd,,Snoqualamish,WA,US,98215
62,work,Xelco Collection Service,4535 Willow Park CT,,Snoqualamish,WA,US,98215
68,work,U S Hospitality Consultant,2714 Woodsfield CT,,,,US,
26,work,Resolution Trust Corp,1905 S Hillyer Ave,,Snoqualamish,WA,US,98215
28,work,Weber Management Company,6679 S Cross Creek CT,,Snoqualamish,WA,US,98215
32,work,Mattress Factory The,6732 S Olde Dublin Woods Dr,,Snoqualamish,WA,US,98215
65,work,Academy Veterinary Hospital,8350 Lighthouse CT,,,,US,
69,work,Echosphere Corporation,7210 West View Dr,,,,US,
122,work,Meridian Cafe-Bakery,5750 N Colleton Dr,,Snoqualamish,WA,US,98215
5,work,Polymedica Industries Inc,2672 N Hornsea Dr,,Snoqualamish,WA,US,98215
14,work,Screenplay Video Centers,7805 S Archer Ln,,Snoqualamish,WA,US,98215
11,work,Taylors Liquors,445 S Perkins Ln,,Snoqualamish,WA,US,98215
205,work,Monkey Tree,8668 N Pinehurst Pte,,Snoqualamish,WA,US,98215
52,work,Maria Elena's Mexican Restaurant,5026 S Library Rd,,Snoqualamish,WA,US,98215
71,work,Hospitality Flowers & Gifts,6725 Sheridan St,,,,US,
76,work,Metro Truck & Auto Service Center,123 Nimrod Dr,San Marino,Snoqualamish,WA,US,98215
16,work,Malecall II,9044 S Kelsey CT,,Snoqualamish,WA,US,98215
44,work,R L Plimpton Assoc Inc,7480 N Lakehurst CT,,Snoqualamish,WA,US,98215
51,work,Steele Elementary School,6916 W Crooked Elm CT,,Snoqualamish,WA,US,98215
120,work,National Certification Board Perioperativ,4604 W Moliana CT,,Snoqualamish,WA,US,98215
23,work,A Flag House,1583 W Kim Rd,,Snoqualamish,WA,US,98215
43,work,Boulder Mtn Overcharge Claim Audit,7930 S Mays Ln,,Snoqualamish,WA,US,98215
54,work,Little Ceasars Pizza,7414 N Wellington Blvd,,Snoqualamish,WA,US,98215
149,work,,1111 Helium Way,,San Rafael,CA,US,94901
18,work,Specialty Systems,785 S Wallsend CT,,Snoqualamish,WA,US,98215
35,work,Ollie's Roundup,9451 S Banbridge Ln,,Snoqualamish,WA,US,98215
33,work,Labriola Machine,1577 S Meadow Ash Dr,,Snoqualamish,WA,US,98215
150,work,,12212,,,,US,
7,work,Peck Doran P C,1556 N Inverness St,,Snoqualamish,WA,US,98215
22,work,Midwest Sales CO,4557 S Frank St,,Snoqualamish,WA,US,98215
55,work,Splash of Color,464 S Kodiak CT,,Snoqualamish,WA,US,98215
2,work,Rainbow Rebuilders,6694 S Abbotsford Way,Median/26-632-440-#21,Snoqualamish,WA,US,98215
2,work,Rainbow Rebuilders,123 West,Median/26-632-440-#21,Snoqualamish,WA,US,98215
36,work,Lingerie Etc,1760 S Cuyuga Dr,,Snoqualamish,WA,US,98215
24,work,Riley Income Tax Service,1710 W Liberty Rd,,Snoqualamish,WA,US,98215
27,work,Rains-Flo Packings,5102 E Clark-Shaw Rd,,Snoqualamish,WA,US,98215
58,work,Toys-R-Us,515 W Vinson Dr,,Snoqualamish,WA,US,98215
67,work,Children's Hospital,1552 Naples National CT,,,,US,
72,work,Hospitality Group Inc The,429 Cali Glen Ln,,,,US,
1,work,Seniors in Community Living Inc,9095 S Greyson Dr,,Snoqualamish,WA,US,98215
20,work,Sears J L & Associates Real Estate,7323 S Fairway Rd,,Snoqualamish,WA,US,98215
73,work,Bill's Balloon Bonanza,1111 Helium Way,,San Rafael,CA,US,94901
19,work,Mercer William M Incorporated,5707 S Chatham Dr,,Snoqualamish,WA,US,98215
21,work,Lamar Ventures,2941 S Adara Dr,,Snoqualamish,WA,US,98215
31,work,Pacific Jewelry & Loan CO,2566 S Main Rd,,Snoqualamish,WA,US,98215
37,work,Southwest Radiographics,9458 S Rolling Ridge Way,,Snoqualamish,WA,US,98215
45,work,29th Ave Liquor,4880 N Beech Ridge Dr,,Snoqualamish,WA,US,98215
47,work,So Fine Limousine Service,3947 W Greenlawn Dr,,Snoqualamish,WA,US,98215
0,work,Littleton Garage Door Service,6669 S Scottwood CT,,Snoqualamish,WA,US,98215
13,work,LA Salle Partners,5622 E Sterling Glen Dr,,Snoqualamish,WA,US,98215
61,work,Mann Robert Oriental,1637 W Ketterington Ln,,Snoqualamish,WA,US,98215
66,work,Bethesda At St Anthony Hospital North,1802 Woodcreek Pl,,,,US,
70,work,Hospital Shared Services Warehouse,5998 Buena Park Dr,,,,US,
8,work,T-M Service CO,1328 S Dogwood Ln,,Snoqualamish,WA,US,98215
12,work,North Star Liquor,7698 E Hunters Bnd,,Snoqualamish,WA,US,98215
17,work,World Computer Corporation,7816 S Yankee St,,Snoqualamish,WA,US,98215
34,work,World Wide Funding,197 W Maxwell Ave,,Snoqualamish,WA,US,98215
49,work,Opus One Designs,3166 S Guard-Well St,,Snoqualamish,WA,US,98215
60,work,Real Property Valuations Inc,9089 S Linksway Dr,,Snoqualamish,WA,US,98215
64,work,A-Quest Electronics,5289 W Preston Mill CT,,Snoqualamish,WA,US,98215
4,work,Lakewood Family Medical Clinic Pc,7846 Champions CT,,Snoqualamish,WA,US,98215
9,work,Mex Imports,6471 S Chant CT,,Snoqualamish,WA,US,98215
41,work,Metro Dishwasher,3557 W Lawton St,,Snoqualamish,WA,US,98215
46,work,Park Mayfair Home Owners Assoc,6931 W Meadow Bend Dr,,Snoqualamish,WA,US,98215
25,work,Redding Equipment CO,2230 S Vinmar Way,,Snoqualamish,WA,US,98215
30,work,Academy T V Service,7704 E Quarter Way,,Snoqualamish,WA,US,98215
53,work,New Again Auto Re-Con Systems,881 S Fawn Meadow CT,,Snoqualamish,WA,US,98215
56,work,National Lender Services Inc,5450 N Grace CT,,Snoqualamish,WA,US,98215
59,work,Quality Surface of Metro Snoqualamish,7359 W Seay CT,,Snoqualamish,WA,US,98215
135,work,Meridian Travel Ltd,8119 N Lanetta Ln,,Snoqualamish,WA,US,98215
6,work,Sheridan Sanitation District #2,7022 N Ryan Meadow Pl,,Snoqualamish,WA,US,98215
15,work,Willie's Place,8488 S Strathmoore Rd,,Snoqualamish,WA,US,98215
148,work,,1435 N El Monte BLVD,,Snoqualamish,Wa,US,98215
198,work,A&I Rims,5750 N Colleton Dr,,Snoqualamish,WA,US,98215
40,work,Wej Management Corp,4424 S Red Barn St,,Snoqualamish,WA,US,98215
42,work,Advantage Brokers,5120 S Webb St,,Snoqualamish,WA,US,98215
10,work,Tafoya Electric,1795 S Church View CT,,Snoqualamish,WA,US,98215
29,work,Mr Smith's Restaurant,4370 S Robin Hood Ln,,Snoqualamish,WA,US,98215
39,work,Omelet House Restaurant,709 W Wallace Dr,,Snoqualamish,WA,US,98215
